LEMUR-2-GREENBERG       
1 42837U 17042N   26068.46200528  .00019778  00000+0  72539-3 0  9997
2 42837  97.3781 249.8007 0009157   4.0119 356.1192 15.27971352473146
STARLINK-30715          
1 57941U 23148G   26068.27977187 -.00003208  00000+0 -96318-4 0  9999
2 57941  53.1626  15.8909 0001146  93.0040 267.1092 15.30177130138503
