[{"OBJECT_NAME":"LEMUR-2-GREENBERG","OBJECT_ID":"2017-042N","EPOCH":"2026-03-09T11:05:17.256192","MEAN_MOTION":15.27971352,"ECCENTRICITY":0.00091572,"INCLINATION":97.3781,"RA_OF_ASC_NODE":249.8007,"ARG_OF_PERICENTER":4.0119,"MEAN_ANOMALY":356.1192,"EPHEMERIS_TYPE":0,"CLASSIFICATION_TYPE":"U","NORAD_CAT_ID":42837,"ELEMENT_SET_NO":999,"REV_AT_EPOCH":47314,"BSTAR":0.00072539172,"MEAN_MOTION_DOT":0.00019778,"MEAN_MOTION_DDOT":0},{"OBJECT_NAME":"STARLINK-30715","OBJECT_ID":"2023-148G","EPOCH":"2026-03-09T06:42:52.289568","MEAN_MOTION":15.3017713,"ECCENTRICITY":0.0001146,"INCLINATION":53.1626,"RA_OF_ASC_NODE":15.8909,"ARG_OF_PERICENTER":93.004,"MEAN_ANOMALY":267.1092,"EPHEMERIS_TYPE":0,"CLASSIFICATION_TYPE":"U","NORAD_CAT_ID":57941,"ELEMENT_SET_NO":999,"REV_AT_EPOCH":13850,"BSTAR":-9.6318201e-5,"MEAN_MOTION_DOT":-3.208e-5,"MEAN_MOTION_DDOT":0}]
